IRIDIUM 155             
1 43573U 18061E   24297.77622331  .00000228  00000+0  74348-4 0  9994
2 43573  86.3922 308.0182 0002416  92.8618 267.2854 14.34217753327152
IRIDIUM 154             
1 43574U 18061F   24297.96650956  .00000072  00000+0  18804-4 0  9992
2 43574  86.3928 308.0425 0002085  92.4906 267.6529 14.34217751327237
IRIDIUM 163             
1 43575U 18061G   24297.94747822  .00000233  00000+0  76165-4 0  9993
2 43575  86.3925 307.9849 0002246  97.3930 262.7521 14.34219638327204
IRIDIUM 156             
1 43576U 18061H   24297.78257607  .00000272  00000+0  89967-4 0  9990
2 43576  86.3925 308.0604 0002595  91.1431 269.0062 14.34216632327178
IRIDIUM 164             
1 43577U 18061J   24297.83331657 -.00000010  00000+0 -10722-4 0  9990
2 43577  86.3929 308.0699 0002313  86.2056 273.9404 14.34218177327229
IRIDIUM 159             
1 43578U 18061K   24297.94113924 -.00000170  00000+0 -67748-4 0  9995
2 43578  86.3922 307.9746 0002062  89.8421 270.3011 14.34214857327204
IRIDIUM 180             
1 43922U 19002A   24297.94063088  .00000243  00000+0  79883-4 0  9991
2 43922  86.3964 244.8055 0002203  85.6629 274.4819 14.34214654302812
IRIDIUM 176             
1 43923U 19002B   24297.84866843  .00003406  00000+0  53609-3 0  9992
2 43923  86.6091 244.8546 0002272  92.0139 268.1339 14.72250970310770
IRIDIUM 168             
1 43924U 19002C   24297.93429434  .00000124  00000+0  37075-4 0  9998
2 43924  86.3965 244.8685 0002182  84.8131 275.3314 14.34219957302797
IRIDIUM 173             
1 43925U 19002D   24298.13091166  .00000634  00000+0  21936-3 0  9993
2 43925  86.3960 244.6999 0002097  80.8958 279.2474 14.34220264302813
IRIDIUM 169             
1 43926U 19002E   24297.94260610  .00000400  00000+0  12428-3 0  9991
2 43926  86.4171 276.4197 0003160 121.7182 238.4324 14.38609507303781
IRIDIUM 172             
1 43927U 19002F   24297.77572216  .00000692  00000+0  24020-3 0  9995
2 43927  86.3961 244.8535 0002022  85.0964 275.0462 14.34213392302765
IRIDIUM 175             
1 43928U 19002G   24297.91117325  .00002504  00000+0  39332-3 0  9994
2 43928  86.1557 210.7389 0002970  90.0851 270.0706 14.72223494310779
IRIDIUM 171             
1 43929U 19002H   24297.89623689  .00000405  00000+0  13770-3 0  9993
2 43929  86.3974 245.0437 0002454  77.1874 282.9596 14.34219441302773
IRIDIUM 170             
1 43930U 19002J   24297.92284574  .00002849  00000+0  44806-3 0  9993
2 43930  86.6091 244.8291 0002264  78.8726 281.2746 14.72237693310797
IRIDIUM 167             
1 43931U 19002K   24297.95967346  .00000732  00000+0  25421-3 0  9993
2 43931  86.3964 244.7947 0002464  80.3690 279.7784 14.34222807302784
IRIDIUM 181             
1 56726U 23068S   24297.96670500  .00000369  00000+0  10317-3 0  9994
2 56726  86.8581 304.8152 0002586  83.7370 276.4126 14.43570509 75712
IRIDIUM 177             
1 56727U 23068T   24297.93868811  .00003971  00000+0  51896-3 0  9995
2 56727  86.1951 254.1987 0003070  89.8505 270.3068 14.80229937 77421
IRIDIUM 174             
1 56728U 23068U   24297.93326129  .00003893  00000+0  50889-3 0  9991
2 56728  86.1958 254.3149 0003016  82.7613 277.3951 14.80219099 77429
IRIDIUM 178             
1 56729U 23068V   24297.65744066  .00001391  00000+0  17962-3 0  9991
2 56729  86.5726 278.0078 0002610  87.6302 272.5219 14.80239757 77381
IRIDIUM 179             
1 56730U 23068W   24297.51679706  .00001123  00000+0  14443-3 0  9990
2 56730  86.6734 283.8234 0002926  93.2065 266.9491 14.80222523 77360
